{"type": "FeatureCollection", "features": [ {"type": "Feature", "properties": {"norad_id": 32129, "name": "FENGYUN 1C DEB", "group": "fengyun-1c-debris", "lat": 16.85291768141208, "lon": -56.27625672115393, "alt_km": 844.6257249264818, "timestamp": "2025-12-27T23:26:37.648178+00:00", "meta": {"OBJECT_NAME": "FENGYUN 1C DEB", "OBJECT_ID": "1999-025CRX", "EPOCH": "2025-12-24T07:24:14.641056", "MEAN_MOTION": 14.28606563, "ECCENTRICITY": 0.00672143, "INCLINATION": 99.0579, "RA_OF_ASC_NODE": 117.1473, "ARG_OF_PERICENTER": 0.1462, "MEAN_ANOMALY": 26.8014, "EPHEMERIS_TYPE": 0, "CLASSIFICATION_TYPE": "U", "NORAD_CAT_ID": 32129, "ELEMENT_SET_NO": 999, "REV_AT_EPOCH": 94392, "BSTAR": 0.0021405461, "MEAN_MOTION_DOT": 5.462e-05, "MEAN_MOTION_DDOT": 0}, "tle": {"line1": "1 32129U 99025CRX 25358.30850279  .00005462  00000+0  21405-2 0  9999", "line2": "2 32129  99.0579 117.1473 0067214   0.1462  26.8014 14.28606563943924"}}, "geometry": {"type": "Point", "coordinates": [-56.27625672115393, 16.85291768141208]}}, {"type": "Feature", "properties": {"norad_id": 32130, "name": "FENGYUN 1C DEB", "group": "fengyun-1c-debris", "lat": 18.88081835332377, "lon": -7.8960699204235345, "alt_km": 799.3192075635325, "timestamp": "2025-12-27T23:26:37.648188+00:00", "meta": {"OBJECT_NAME": "FENGYUN 1C DEB", "OBJECT_ID": "1999-025CRY", "EPOCH": "2025-12-27T05:59:11.147712", "MEAN_MOTION": 14.37589118, "ECCENTRICITY": 0.0082268, "INCLINATION": 98.904, "RA_OF_ASC_NODE": 168.2775, "ARG_OF_PERICENTER": 287.0588, "MEAN_ANOMALY": 72.1597, "EPHEMERIS_TYPE": 0, "CLASSIFICATION_TYPE": "U", "NORAD_CAT_ID": 32130, "ELEMENT_SET_NO": 999, "REV_AT_EPOCH": 96443, "BSTAR": 0.00055905, "MEAN_MOTION_DOT": 1.695e-05, "MEAN_MOTION_DDOT": 0}, "tle": {"line1": "1 32130U 99025CRY 25361.24943458  .00001695  00000+0  55905-3 0  9997", "line2": "2 32130  98.9040 168.2775 0082268 287.0588  72.1597 14.37589118964435"}}, "geometry": {"type": "Point", "coordinates": [-7.8960699204235345, 18.88081835332377]}}, {"type": "Feature", "properties": {"norad_id": 32133, "name": "FENGYUN 1C DEB", "group": "fengyun-1c-debris", "lat": -8.25386389053998, "lon": -178.812055861119, "alt_km": 852.6461260811166, "timestamp": "2025-12-27T23:26:37.648198+00:00", "meta": {"OBJECT_NAME": "FENGYUN 1C DEB", "OBJECT_ID": "1999-025CSB", "EPOCH": "2025-12-26T11:00:03.872160", "MEAN_MOTION": 14.18082233, "ECCENTRICITY": 0.0036315, "INCLINATION": 98.4322, "RA_OF_ASC_NODE": 0.9785, "ARG_OF_PERICENTER": 62.3488, "MEAN_ANOMALY": 298.1367, "EPHEMERIS_TYPE": 0, "CLASSIFICATION_TYPE": "U", "NORAD_CAT_ID": 32133, "ELEMENT_SET_NO": 999, "REV_AT_EPOCH": 95169, "BSTAR": 0.00019702, "MEAN_MOTION_DOT": 3.66e-06, "MEAN_MOTION_DDOT": 0}, "tle": {"line1": "1 32133U 99025CSB 25360.45837815  .00000366  00000+0  19702-3 0  9990", "line2": "2 32133  98.4322   0.9785 0036315  62.3488 298.1367 14.18082233951698"}}, "geometry": {"type": "Point", "coordinates": [-178.812055861119, -8.25386389053998]}}, {"type": "Feature", "properties": {"norad_id": 32134, "name": "FENGYUN 1C DEB", "group": "fengyun-1c-debris", "lat": -51.106999811056035, "lon": 173.98518225477827, "alt_km": 644.4883036280826, "timestamp": "2025-12-27T23:26:37.648208+00:00", "meta": {"OBJECT_NAME": "FENGYUN 1C DEB", "OBJECT_ID": "1999-025CSC", "EPOCH": "2025-12-26T06:08:05.282016", "MEAN_MOTION": 14.21600532, "ECCENTRICITY": 0.0259188, "INCLINATION": 98.5954, "RA_OF_ASC_NODE": 3.1134, "ARG_OF_PERICENTER": 224.2529, "MEAN_ANOMALY": 203.1994, "EPHEMERIS_TYPE": 0, "CLASSIFICATION_TYPE": "U", "NORAD_CAT_ID": 32134, "ELEMENT_SET_NO": 999, "REV_AT_EPOCH": 95339, "BSTAR": 0.0005165, "MEAN_MOTION_DOT": 1.544e-05, "MEAN_MOTION_DDOT": 0}, "tle": {"line1": "1 32134U 99025CSC 25360.25561669  .00001544  00000+0  51650-3 0  9997", "line2": "2 32134  98.5954   3.1134 0259188 224.2529 203.1994 14.21600532953397"}}, "geometry": {"type": "Point", "coordinates": [173.98518225477827, -51.106999811056035]}}, {"type": "Feature", "properties": {"norad_id": 32137, "name": "FENGYUN 1C DEB", "group": "fengyun-1c-debris", "lat": 42.42268635775725, "lon": 122.2390236753485, "alt_km": 550.004474001782, "timestamp": "2025-12-27T23:26:37.648218+00:00", "meta": {"OBJECT_NAME": "FENGYUN 1C DEB", "OBJECT_ID": "1999-025CSF", "EPOCH": "2025-12-23T02:32:31.228800", "MEAN_MOTION": 14.81363769, "ECCENTRICITY": 0.01866336, "INCLINATION": 98.4426, "RA_OF_ASC_NODE": 124.9072, "ARG_OF_PERICENTER": 0.8839, "MEAN_ANOMALY": 359.2666, "EPHEMERIS_TYPE": 0, "CLASSIFICATION_TYPE": "U", "NORAD_CAT_ID": 32137, "ELEMENT_SET_NO": 999, "REV_AT_EPOCH": 66884, "BSTAR": 0.00071247012, "MEAN_MOTION_DOT": 7.465e-05, "MEAN_MOTION_DDOT": 0}, "tle": {"line1": "1 32137U 99025CSF 25357.10591700  .00007465  00000+0  71247-3 0  9991", "line2": "2 32137  98.4426 124.9072 0186633   0.8839 359.2666 14.81363769668848"}}, "geometry": {"type": "Point", "coordinates": [122.2390236753485, 42.42268635775725]}}, {"type": "Feature", "properties": {"norad_id": 32143, "name": "FENGYUN 1C DEB", "group": "fengyun-1c-debris", "lat": 60.911221021059056, "lon": 174.2128957140289, "alt_km": 780.0363255872089, "timestamp": "2025-12-27T23:26:37.648228+00:00", "meta": {"OBJECT_NAME": "FENGYUN 1C DEB", "OBJECT_ID": "1999-025CSM", "EPOCH": "2025-12-27T04:16:16.029120", "MEAN_MOTION": 14.17982352, "ECCENTRICITY": 0.01045084, "INCLINATION": 98.5986, "RA_OF_ASC_NODE": 337.6576, "ARG_OF_PERICENTER": 67.4701, "MEAN_ANOMALY": 293.7497, "EPHEMERIS_TYPE": 0, "CLASSIFICATION_TYPE": "U", "NORAD_CAT_ID": 32143, "ELEMENT_SET_NO": 999, "REV_AT_EPOCH": 96138, "BSTAR": 0.00022775487, "MEAN_MOTION_DOT": 4.5e-06, "MEAN_MOTION_DDOT": 0}, "tle": {"line1": "1 32143U 99025CSM 25361.17796330  .00000450  00000+0  22775-3 0  9995", "line2": "2 32143  98.5986 337.6576 0104508  67.4701 293.7497 14.17982352961380"}}, "geometry": {"type": "Point", "coordinates": [174.2128957140289, 60.911221021059056]}}, {"type": "Feature", "properties": {"norad_id": 32150, "name": "FENGYUN 1C DEB", "group": "fengyun-1c-debris", "lat": 47.49400709876337, "lon": -143.33492225993803, "alt_km": 726.2630718206246, "timestamp": "2025-12-27T23:26:37.648238+00:00", "meta": {"OBJECT_NAME": "FENGYUN 1C DEB", "OBJECT_ID": "1999-025CSU", "EPOCH": "2025-12-27T08:03:33.604704", "MEAN_MOTION": 14.60699557, "ECCENTRICITY": 0.017132, "INCLINATION": 99.1909, "RA_OF_ASC_NODE": 25.779, "ARG_OF_PERICENTER": 23.5475, "MEAN_ANOMALY": 337.3448, "EPHEMERIS_TYPE": 0, "CLASSIFICATION_TYPE": "U", "NORAD_CAT_ID": 32150, "ELEMENT_SET_NO": 999, "REV_AT_EPOCH": 97919, "BSTAR": 0.00019902, "MEAN_MOTION_DOT": 1.124e-05, "MEAN_MOTION_DDOT": 0}, "tle": {"line1": "1 32150U 99025CSU 25361.33580561  .00001124  00000+0  19902-3 0  9995", "line2": "2 32150  99.1909  25.7790 0171320  23.5475 337.3448 14.60699557979199"}}, "geometry": {"type": "Point", "coordinates": [-143.33492225993803, 47.49400709876337]}}, {"type": "Feature", "properties": {"norad_id": 32152, "name": "FENGYUN 1C DEB", "group": "fengyun-1c-debris", "lat": 70.72080066184327, "lon": 10.052562868313455, "alt_km": 669.9754253238734, "timestamp": "2025-12-27T23:26:37.648248+00:00", "meta": {"OBJECT_NAME": "FENGYUN 1C DEB", "OBJECT_ID": "1999-025CSW", "EPOCH": "2025-12-21T05:25:01.444224", "MEAN_MOTION": 14.56838784, "ECCENTRICITY": 0.00551981, "INCLINATION": 98.7603, "RA_OF_ASC_NODE": 156.8014, "ARG_OF_PERICENTER": 175.7831, "MEAN_ANOMALY": 184.3842, "EPHEMERIS_TYPE": 0, "CLASSIFICATION_TYPE": "U", "NORAD_CAT_ID": 32152, "ELEMENT_SET_NO": 999, "REV_AT_EPOCH": 62736, "BSTAR": 0.0014652442, "MEAN_MOTION_DOT": 6.654e-05, "MEAN_MOTION_DDOT": 0}, "tle": {"line1": "1 32152U 99025CSW 25355.22571116  .00006654  00000+0  14652-2 0  9993", "line2": "2 32152  98.7603 156.8014 0055198 175.7831 184.3842 14.56838784627361"}}, "geometry": {"type": "Point", "coordinates": [10.052562868313455, 70.72080066184327]}}, {"type": "Feature", "properties": {"norad_id": 32153, "name": "FENGYUN 1C DEB", "group": "fengyun-1c-debris", "lat": -5.814600409144212, "lon": -153.591094612143, "alt_km": 881.0138562924667, "timestamp": "2025-12-27T23:26:37.648260+00:00", "meta": {"OBJECT_NAME": "FENGYUN 1C DEB", "OBJECT_ID": "1999-025CSX", "EPOCH": "2025-12-26T07:41:23.857728", "MEAN_MOTION": 14.48759379, "ECCENTRICITY": 0.0207722, "INCLINATION": 98.7689, "RA_OF_ASC_NODE": 203.7873, "ARG_OF_PERICENTER": 180.2083, "MEAN_ANOMALY": 179.9057, "EPHEMERIS_TYPE": 0, "CLASSIFICATION_TYPE": "U", "NORAD_CAT_ID": 32153, "ELEMENT_SET_NO": 999, "REV_AT_EPOCH": 97420, "BSTAR": 0.00029228, "MEAN_MOTION_DOT": 1.391e-05, "MEAN_MOTION_DDOT": 0}, "tle": {"line1": "1 32153U 99025CSX 25360.32041502  .00001391  00000+0  29228-3 0  9991", "line2": "2 32153  98.7689 203.7873 0207722 180.2083 179.9057 14.48759379974202"}}, "geometry": {"type": "Point", "coordinates": [-153.591094612143, -5.814600409144212]}}, {"type": "Feature", "properties": {"norad_id": 32155, "name": "FENGYUN 1C DEB", "group": "fengyun-1c-debris", "lat": -11.633071793594226, "lon": 110.24093425288028, "alt_km": 736.5223167921995, "timestamp": "2025-12-27T23:26:37.648271+00:00", "meta": {"OBJECT_NAME": "FENGYUN 1C DEB", "OBJECT_ID": "1999-025CSZ", "EPOCH": "2025-12-22T15:11:27.193632", "MEAN_MOTION": 14.32975023, "ECCENTRICITY": 0.00693114, "INCLINATION": 98.9542, "RA_OF_ASC_NODE": 286.5796, "ARG_OF_PERICENTER": 210.5989, "MEAN_ANOMALY": 149.1143, "EPHEMERIS_TYPE": 0, "CLASSIFICATION_TYPE": "U", "NORAD_CAT_ID": 32155, "ELEMENT_SET_NO": 999, "REV_AT_EPOCH": 70364, "BSTAR": 0.00042072892, "MEAN_MOTION_DOT": 1.135e-05, "MEAN_MOTION_DDOT": 0}, "tle": {"line1": "1 32155U 99025CSZ 25356.63295363  .00001135  00000+0  42073-3 0  9997", "line2": "2 32155  98.9542 286.5796 0069311 210.5989 149.1143 14.32975023703641"}}, "geometry": {"type": "Point", "coordinates": [110.24093425288028, -11.633071793594226]}}]}